NORAD_CAT_ID,OBJECT_NAME,OBJECT_TYPE,EPOCH,MEAN_MOTION,ECCENTRICITY,INCLINATION,RA_OF_ASC_NODE,ARG_OF_PERICENTER,MEAN_ANOMALY,BSTAR,MEAN_MOTION_DOT,MEAN_MOTION_DDOT,TLE_LINE0,TLE_LINE1,TLE_LINE2,SEMIMAJOR_AXIS,PERIOD,APOGEE,PERIGEE,DECAYED
52485.0,STARLINK-3913,PAYLOAD,2023-10-09 14:11:06,15.08842279,0.0001625,53.2183,49.016,103.1171,257.0003,1.3852e-05,-6.8e-07,0.0,0 STARLINK-3913,1 52485U 22049AL  23282.59104966 -.00000068  00000-0  13852-4 0  9996,2 52485  53.2183  49.0160 0001625 103.1171 257.0003 15.08842279 79229,6917.873,95.437,540.863,538.614,0.0
52485.0,STARLINK-3913,PAYLOAD,2023-10-09 15:46:29,15.0884858,0.0001366,53.2177,48.7175,92.5297,267.5852,0.0001614,2.282e-05,0.0,0 STARLINK-3913,1 52485U 22049AL  23282.65728691  .00002282  00000-0  16140-3 0  9991,2 52485  53.2177  48.7175 0001366  92.5297 267.5852 15.08848580 79393,6917.854,95.437,540.664,538.774,0.0
52485.0,STARLINK-3913,PAYLOAD,2023-10-10 12:26:30,15.08846649,0.0001524,53.2175,44.8527,96.9253,263.1912,0.00015064,2.111e-05,0.0,0 STARLINK-3913,1 52485U 22049AL  23283.51840711  .00002111  00000-0  15064-3 0  9990,2 52485  53.2175  44.8527 0001524  96.9253 263.1912 15.08846649 79523,6917.86,95.437,540.779,538.671,0.0
52485.0,STARLINK-3913,PAYLOAD,2023-10-10 14:01:53,15.08849511,0.0001567,53.2178,44.556,92.821,267.2962,0.00019828,2.87e-05,0.0,0 STARLINK-3913,1 52485U 22049AL  23283.58464549  .00002870  00000-0  19828-3 0  9992,2 52485  53.2178  44.5560 0001567  92.8210 267.2962 15.08849511 79379,6917.851,95.437,540.8,538.632,0.0
52485.0,STARLINK-3913,PAYLOAD,2023-10-10 17:12:39,15.08859544,0.0001456,53.2167,43.9608,95.4125,264.7033,0.00036997,5.608e-05,0.0,0 STARLINK-3913,1 52485U 22049AL  23283.71712072  .00005608  00000-0  36997-3 0  9992,2 52485  53.2167  43.9608 0001456  95.4125 264.7033 15.08859544 79552,6917.821,95.436,540.693,538.678,0.0
52485.0,STARLINK-3913,PAYLOAD,2023-10-11 12:17:17,15.08832951,0.000225,53.218,40.391,117.6874,242.4346,-5.6516e-05,-1.188e-05,0.0,0 STARLINK-3913,1 52485U 22049AL  23284.51201331 -.00001188  00000-0 -56516-4 0  9993,2 52485  53.2180  40.3910 0002250 117.6874 242.4346 15.08832951 79671,6917.902,95.438,541.323,538.21,0.0
52485.0,STARLINK-3913,PAYLOAD,2023-10-11 13:52:41,15.08833278,0.0001531,53.2174,40.0947,95.1954,264.9213,-8.2417e-05,-1.599e-05,0.0,0 STARLINK-3913,1 52485U 22049AL  23284.57825355 -.00001599  00000-0 -82417-4 0  9992,2 52485  53.2174  40.0947 0001531  95.1954 264.9213 15.08833278 79520,6917.901,95.438,540.825,538.707,0.0
52485.0,STARLINK-3913,PAYLOAD,2023-10-12 13:43:27,15.08846923,0.0001273,53.2166,35.635,98.626,261.4876,0.00023587,3.469e-05,0.0,0 STARLINK-3913,1 52485U 22049AL  23285.57185095  .00003469  00000-0  23587-3 0  9991,2 52485  53.2166  35.6350 0001273  98.6260 261.4876 15.08846923 79674,6917.859,95.437,540.605,538.844,0.0
52485.0,STARLINK-3913,PAYLOAD,2023-10-13 00:51:10,15.08840996,0.000138,53.2179,33.5514,94.2787,265.8363,0.00036563,5.536e-05,0.0,0 STARLINK-3913,1 52485U 22049AL  23286.03553485  .00005536  00000-0  36563-3 0  9990,2 52485  53.2179  33.5514 0001380  94.2787 265.8363 15.08840996 79901,6917.877,95.437,540.697,538.788,0.0
52485.0,STARLINK-3913,PAYLOAD,2023-10-13 13:34:15,15.08847417,0.0001702,53.2181,31.1729,92.1659,267.9528,0.00031381,4.711e-05,0.0,0 STARLINK-3913,1 52485U 22049AL  23286.56545508  .00004711  00000-0  31381-3 0  9992,2 52485  53.2181  31.1729 0001702  92.1659 267.9528 15.08847417 79821,6917.858,95.437,540.9,538.545,0.0
52485.0,STARLINK-3913,PAYLOAD,2023-10-14 10:14:15,15.08849525,0.0001646,53.2174,27.3094,78.2269,281.8908,0.00026257,3.894e-05,0.0,0 STARLINK-3913,1 52485U 22049AL  23287.42657350  .00003894  00000-0  26257-3 0  9994,2 52485  53.2174  27.3094 0001646  78.2269 281.8908 15.08849525 80117,6917.851,95.437,540.855,538.578,0.0
52485.0,STARLINK-3913,PAYLOAD,2023-10-14 13:25:01,15.08856318,0.0001553,53.219,26.7133,90.115,270.002,0.00032059,4.82e-05,0.0,0 STARLINK-3913,1 52485U 22049AL  23287.55904893  .00004820  00000-0  32059-3 0  9992,2 52485  53.2190  26.7133 0001553  90.1150 270.0020 15.08856318 79976,6917.831,95.437,540.77,538.621,0.0
52485.0,STARLINK-3913,PAYLOAD,2023-10-15 13:15:50,15.0882789,0.0001433,53.2179,22.2539,90.202,269.9136,-0.00011048,-2.045e-05,0.0,0 STARLINK-3913,1 52485U 22049AL  23288.55266297 -.00002045  00000-0 -11048-3 0  9996,2 52485  53.2179  22.2539 0001433  90.2020 269.9136 15.08827890 80282,6917.917,95.438,540.774,538.791,0.0
52485.0,STARLINK-3913,PAYLOAD,2023-10-16 06:45:04,15.08837112,0.00014,53.2187,18.9815,90.906,269.2093,0.00011344,1.518e-05,0.0,0 STARLINK-3913,1 52485U 22049AL  23289.28130404  .00001518  00000-0  11344-3 0  9998,2 52485  53.2187  18.9815 0001400  90.9060 269.2093 15.08837112 80390,6917.889,95.438,540.723,538.786,0.0
52485.0,STARLINK-3913,PAYLOAD,2023-10-16 13:06:36,15.08851135,0.0001397,53.2174,17.7953,95.8234,264.2917,0.00060114,9.295e-05,0.0,0 STARLINK-3913,1 52485U 22049AL  23289.54626132  .00009295  00000-0  60114-3 0  9994,2 52485  53.2174  17.7953 0001397  95.8234 264.2917 15.08851135 80276,6917.846,95.437,540.678,538.745,0.0
52485.0,STARLINK-3913,PAYLOAD,2023-10-17 12:57:24,15.0885614,0.000128,53.2172,13.3337,83.6273,276.4865,0.00061563,9.528e-05,0.0,0 STARLINK-3913,1 52485U 22049AL  23290.53986172  .00009528  00000-0  61563-3 0  9996,2 52485  53.2172  13.3337 0001280  83.6273 276.4865 15.08856140 80583,6917.831,95.437,540.582,538.811,0.0
52485.0,STARLINK-3913,PAYLOAD,2023-10-18 00:05:06,15.08835314,0.0001501,53.2173,11.2527,96.1963,263.9201,-0.00027034,-4.587e-05,0.0,0 STARLINK-3913,1 52485U 22049AL  23291.00354218 -.00004587  00000-0 -27034-3 0  9996,2 52485  53.2173  11.2527 0001501  96.1963 263.9201 15.08835314 80498,6917.895,95.438,540.798,538.721,0.0
52485.0,STARLINK-3913,PAYLOAD,2023-10-18 11:12:48,15.08844599,0.0001582,53.2167,9.1717,89.1413,270.9761,0.00063131,9.775e-05,0.0,0 STARLINK-3913,1 52485U 22049AL  23291.46722234  .00009775  00000-0  63131-3 0  9993,2 52485  53.2167   9.1717 0001582  89.1413 270.9761 15.08844599 80729,6917.866,95.437,540.826,538.637,0.0
52485.0,STARLINK-3913,PAYLOAD,2023-10-18 14:23:33,15.08860946,0.000178,53.2175,8.5746,123.4709,236.6453,0.0010369,0.00016262,0.0,0 STARLINK-3913,1 52485U 22049AL  23291.59969600  .00016262  00000-0  10369-2 0  9990,2 52485  53.2175   8.5746 0001780 123.4709 236.6453 15.08860946 80746,6917.816,95.436,540.913,538.45,0.0
52485.0,STARLINK-3913,PAYLOAD,2023-10-18 22:20:29,15.08869784,0.0002199,53.217,7.0891,68.6341,291.4885,0.0016901,0.00026735,0.0,0 STARLINK-3913,1 52485U 22049AL  23291.93089854  .00026735  00000-0  16901-2 0  9996,2 52485  53.2170   7.0891 0002199  68.6341 291.4885 15.08869784 80638,6917.789,95.436,541.176,538.133,0.0
52485.0,STARLINK-3913,PAYLOAD,2023-10-19 11:03:34,15.08852579,0.0001565,53.2164,4.7109,73.7811,286.3353,0.00059915,9.264e-05,0.0,0 STARLINK-3913,1 52485U 22049AL  23292.46081718  .00009264  00000-0  59915-3 0  9997,2 52485  53.2164   4.7109 0001565  73.7811 286.3353 15.08852579 80875,6917.842,95.437,540.79,538.624,0.0
52485.0,STARLINK-3913,PAYLOAD,2023-10-19 14:14:20,15.08851574,0.0001678,53.2159,4.116,67.1731,292.9438,0.0019071,0.00030204,0.0,0 STARLINK-3913,1 52485U 22049AL  23292.59329814  .00030204  00000-0  19071-2 0  9999,2 52485  53.2159   4.1160 0001678  67.1731 292.9438 15.08851574 80739,6917.845,95.437,540.871,538.549,0.0
52485.0,STARLINK-3913,PAYLOAD,2023-10-19 22:11:16,15.08846305,0.0001378,53.216,2.6296,73.4559,286.6584,0.0011402,0.00017908,0.0,0 STARLINK-3913,1 52485U 22049AL  23292.92450038  .00017908  00000-0  11402-2 0  9995,2 52485  53.2160   2.6296 0001378  73.4559 286.6584 15.08846305 80782,6917.861,95.437,540.679,538.773,0.0
52485.0,STARLINK-3913,PAYLOAD,2023-10-20 10:54:22,15.08838603,0.000186,53.2183,0.2486,83.9496,276.1708,0.00017304,2.467e-05,0.0,0 STARLINK-3913,1 52485U 22049AL  23293.45442491  .00002467  00000-0  17304-3 0  9990,2 52485  53.2183   0.2486 0001860  83.9496 276.1708 15.08838603 81026,6917.885,95.438,541.036,538.463,0.0
52485.0,STARLINK-3913,PAYLOAD,2023-10-20 14:05:08,15.08838906,0.000189,53.2188,359.652,88.4401,271.6808,0.00041396,6.306e-05,0.0,0 STARLINK-3913,1 52485U 22049AL  23293.58690523  .00006306  00000-0  41396-3 0  9999,2 52485  53.2188 359.6520 0001890  88.4401 271.6808 15.08838906 80880,6917.884,95.438,541.056,538.441,0.0
52485.0,STARLINK-3913,PAYLOAD,2023-10-21 10:45:09,15.08845514,0.0001696,53.2179,355.7859,93.9847,266.1339,0.00057675,8.904e-05,0.0,0 STARLINK-3913,1 52485U 22049AL  23294.44802740  .00008904  00000-0  57675-3 0  9994,2 52485  53.2179 355.7859 0001696  93.9847 266.1339 15.08845514 81018,6917.864,95.437,540.902,538.555,0.0
52485.0,STARLINK-3913,PAYLOAD,2023-10-22 04:14:24,15.08840465,0.0001807,53.2188,352.5151,87.7424,272.3775,0.00024867,3.672e-05,0.0,0 STARLINK-3913,1 52485U 22049AL  23295.17666998  .00003672  00000-0  24867-3 0  9992,2 52485  53.2188 352.5151 0001807  87.7424 272.3775 15.08840465 81286,6917.879,95.438,540.994,538.494,0.0
52485.0,STARLINK-3913,PAYLOAD,2023-10-22 10:35:56,15.08843843,0.0001751,53.2173,351.3243,94.3397,265.7795,0.00024529,3.618e-05,0.0,0 STARLINK-3913,1 52485U 22049AL  23295.44163023  .00003618  00000-0  24529-3 0  9998,2 52485  53.2173 351.3243 0001751  94.3397 265.7795 15.08843843 81168,6917.869,95.437,540.945,538.522,0.0
52485.0,STARLINK-3913,PAYLOAD,2023-10-23 10:26:44,15.08838888,0.0001567,53.2175,346.8665,91.0719,269.0453,1.9276e-05,1.9e-07,0.0,0 STARLINK-3913,1 52485U 22049AL  23296.43523311  .00000019  00000-0  19276-4 0  9994,2 52485  53.2175 346.8665 0001567  91.0719 269.0453 15.08838888 81479,6917.884,95.438,540.833,538.665,0.0
52485.0,STARLINK-3913,PAYLOAD,2023-10-23 19:59:02,15.08842061,0.0001558,53.2175,345.0838,89.2668,270.8503,7.4081e-05,8.91e-06,0.0,0 STARLINK-3913,1 52485U 22049AL  23296.83267224  .00000891  00000-0  74081-4 0  9999,2 52485  53.2175 345.0838 0001558  89.2668 270.8503 15.08842061 81377,6917.874,95.437,540.817,538.661,0.0
